{"type": "FeatureCollection", "crs": "EPSG:3346", "features": [{"type": "Feature", "properties": {"id": "north-N2-0-0", "kind": "plot", "storeys": 2, "source": "1842 plan of Vilnius (Polona, public domain), traced with local affine fit (audit/north/fit.json, RMS 0.81 m)", "grade": "C", "finding": "N2", "verified": "N2 confirmed; SE part (white on 1808) clipped"}, "geometry": {"type": "Polygon", "coordinates": [[[582960.4940309732, 6061069.639597257], [582961.5102285044, 6061071.189787868], [582961.6963272376, 6061077.649354642], [582970.4021372492, 6061075.753231764], [582970.4506004485, 6061069.0], [582962.0, 6061069.0], [582962.0, 6061067.016299819], [582959.9854253114, 6061068.453450349], [582959.8039388092, 6061069.230661293], [582960.4940309732, 6061069.639597257]]]}}, {"type": "Feature", "properties": {"id": "south-S1-0-0-0", "kind": "plot", "storeys": 2, "source": "1842 plan of Vilnius (Polona, public domain), traced with local affine fit (audit/south/fit.json); existence cross-checked on 1808 map; plots split at ~13 m frontage (conjecture)", "grade": "B-block/C-plot", "finding": "S1", "verified": "S1 confirmed; slits to neighbours closed"}, "geometry": {"type": "Polygon", "coordinates": [[[582975.6549728197, 6060839.5992197655], [582976.6777152965, 6060833.771488055], [582966.8796148901, 6060829.681843045], [582966.0075813485, 6060830.339129029], [582965.4398077733, 6060831.295233136], [582965.5149740803, 6060832.493001506], [582966.9183168754, 6060833.825255488], [582967.8491531296, 6060838.656044395], [582970.1846777981, 6060842.449372083], [582974.6315676838, 6060840.62308759], [582975.6549728197, 6060839.5992197655]]]}}, {"type": "Feature", "properties": {"id": "south-S1-0-1-0", "kind": "plot", "storeys": 3, "source": "1842 plan of Vilnius (Polona, public domain), traced with local affine fit (audit/south/fit.json); existence cross-checked on 1808 map; plots split at ~13 m frontage (conjecture)", "grade": "B-block/C-plot", "finding": "S1", "verified": "S1 confirmed; slits to neighbours closed"}, "geometry": {"type": "Polygon", "coordinates": [[[582969.7845172149, 6060841.6407700945], [582973.1431950344, 6060850.068342509], [582974.9423997495, 6060851.113689626], [582979.5783552299, 6060848.046147479], [582974.564188516, 6060839.677816254], [582969.7845172149, 6060841.6407700945]]]}}, {"type": "Feature", "properties": {"id": "south-S1-0-2-0", "kind": "plot", "storeys": 2, "source": "1842 plan of Vilnius (Polona, public domain), traced with local affine fit (audit/south/fit.json); existence cross-checked on 1808 map; plots split at ~13 m frontage (conjecture)", "grade": "B-block/C-plot", "finding": "S1", "verified": "S1 confirmed; slits to neighbours closed"}, "geometry": {"type": "Polygon", "coordinates": [[[582983.0248839505, 6060830.969097009], [582982.6790657826, 6060828.144445656], [582979.9637994972, 6060821.87758942], [582977.5987155136, 6060821.783235965], [582973.2285071628, 6060824.99752614], [582978.4695667365, 6060832.097643556], [582983.0248839505, 6060830.969097009]]]}}, {"type": "Feature", "properties": {"id": "south-S1-0-3-0", "kind": "plot", "storeys": 3, "source": "1842 plan of Vilnius (Polona, public domain), traced with local affine fit (audit/south/fit.json); existence cross-checked on 1808 map; plots split at ~13 m frontage (conjecture)", "grade": "B-block/C-plot", "finding": "S1", "verified": "S1 confirmed; slits to neighbours closed"}, "geometry": {"type": "Polygon", "coordinates": [[[582979.2461613972, 6060831.63426896], [582973.9530615917, 6060824.463652105], [582966.0384014829, 6060830.305978748], [582976.2759540166, 6060834.579047394], [582979.2461613972, 6060831.63426896]]]}}, {"type": "Feature", "properties": {"id": "south-S1-0-4-0", "kind": "plot", "storeys": 2, "source": "1842 plan of Vilnius (Polona, public domain), traced with local affine fit (audit/south/fit.json); existence cross-checked on 1808 map; plots split at ~13 m frontage (conjecture)", "grade": "B-block/C-plot", "finding": "S1", "verified": "S1 confirmed; slits to neighbours closed"}, "geometry": {"type": "Polygon", "coordinates": [[[582975.7538023407, 6060833.829373238], [582974.718916203, 6060839.726301251], [582985.867448744, 6060842.236943794], [582982.8584326151, 6060830.083125981], [582978.4244192411, 6060831.181620388], [582975.7538023407, 6060833.829373238]]]}}, {"type": "Feature", "properties": {"id": "south-S1-0-5-0", "kind": "plot", "storeys": 2, "source": "1842 plan of Vilnius (Polona, public domain), traced with local affine fit (audit/south/fit.json); existence cross-checked on 1808 map; plots split at ~13 m frontage (conjecture)", "grade": "B-block/C-plot", "finding": "S1", "verified": "S1 confirmed; slits to neighbours closed"}, "geometry": {"type": "Polygon", "coordinates": [[[582973.8106689203, 6060840.17127753], [582978.8481312593, 6060848.578487699], [582985.7898539628, 6060843.103415701], [582985.6854936768, 6060841.273428223], [582975.0932948773, 6060838.888071689], [582973.8106689203, 6060840.17127753]]]}}, {"type": "Feature", "properties": {"id": "west_qa-W-M2-0-0-0", "kind": "plot", "storeys": 2, "source": "1842 plan of Vilnius (Polona, public domain), traced with west_qa local affine (fit.json); existence checked against 1808 map (reference only); plots split at ~13 m frontage (conjecture)", "grade": "B-block/C-plot", "finding": "W-M2", "verified": "W-M2 confirmed"}, "geometry": {"type": "Polygon", "coordinates": [[[582896.5624089394, 6061016.935161594], [582895.3267582792, 6061017.143656459], [582895.2463209695, 6061018.655974079], [582896.9772824862, 6061024.607869053], [582897.8864617192, 6061030.865292577], [582898.3729266097, 6061031.311160658], [582901.5741108077, 6061029.238975943], [582901.2418196835, 6061027.883551648], [582902.6593868759, 6061026.701246075], [582901.7426129829, 6061025.105195037], [582899.7967645243, 6061024.529343387], [582899.5667487434, 6061021.751231153], [582896.5624089394, 6061016.935161594]]]}}, {"type": "Feature", "properties": {"id": "west_qa-W-M2-1-0-0", "kind": "plot", "storeys": 3, "source": "1842 plan of Vilnius (Polona, public domain), traced with west_qa local affine (fit.json); existence checked against 1808 map (reference only); plots split at ~13 m frontage (conjecture)", "grade": "B-block/C-plot", "finding": "W-M2", "verified": "W-M2 confirmed"}, "geometry": {"type": "Polygon", "coordinates": [[[582858.830901257, 6061041.1080195], [582857.779590703, 6061042.107710355], [582865.1534675326, 6061051.57787522], [582866.6680665226, 6061043.187427221], [582858.830901257, 6061041.1080195]]]}}, {"type": "Feature", "properties": {"id": "west_qa-W-M2-1-1-0", "kind": "plot", "storeys": 2, "source": "1842 plan of Vilnius (Polona, public domain), traced with west_qa local affine (fit.json); existence checked against 1808 map (reference only); plots split at ~13 m frontage (conjecture)", "grade": "B-block/C-plot", "finding": "W-M2", "verified": "W-M2 confirmed"}, "geometry": {"type": "Polygon", "coordinates": [[[582866.6680665226, 6061043.187427221], [582865.1534675326, 6061051.57787522], [582865.6310469443, 6061052.131600774], [582866.9830669118, 6061051.731714342], [582872.2445735129, 6061046.014040398], [582874.3935867791, 6061044.713847932], [582872.37731227, 6061040.040433431], [582866.6680665226, 6061043.187427221]]]}}, {"type": "Feature", "properties": {"id": "west_qa-W-M2-1-2-0", "kind": "plot", "storeys": 2, "source": "1842 plan of Vilnius (Polona, public domain), traced with west_qa local affine (fit.json); existence checked against 1808 map (reference only); plots split at ~13 m frontage (conjecture)", "grade": "B-block/C-plot", "finding": "W-M2", "verified": "W-M2 confirmed"}, "geometry": {"type": "Polygon", "coordinates": [[[582872.37731227, 6061040.040433431], [582872.4870474023, 6061038.549503659], [582869.1640297219, 6061033.833111378], [582858.830901257, 6061041.1080195], [582866.6680665226, 6061043.187427221], [582872.37731227, 6061040.040433431]]]}}, {"type": "Feature", "properties": {"id": "west_qa-W-M2-1-3-0", "kind": "plot", "storeys": 2, "source": "1842 plan of Vilnius (Polona, public domain), traced with west_qa local affine (fit.json); existence checked against 1808 map (reference only); plots split at ~13 m frontage (conjecture)", "grade": "B-block/C-plot", "finding": "W-M2", "verified": "W-M2 confirmed"}, "geometry": {"type": "Polygon", "coordinates": [[[582881.1755741182, 6061035.732857736], [582882.3148318174, 6061032.310698455], [582878.6663860655, 6061027.132422654], [582869.1640297219, 6061033.833111378], [582872.4870474023, 6061038.549503659], [582881.1755741182, 6061035.732857736]]]}}, {"type": "Feature", "properties": {"id": "west_qa-W-M2-1-4-0", "kind": "plot", "storeys": 2, "source": "1842 plan of Vilnius (Polona, public domain), traced with west_qa local affine (fit.json); existence checked against 1808 map (reference only); plots split at ~13 m frontage (conjecture)", "grade": "B-block/C-plot", "finding": "W-M2", "verified": "W-M2 confirmed"}, "geometry": {"type": "Polygon", "coordinates": [[[582872.4870474023, 6061038.549503659], [582872.37731227, 6061040.040433431], [582874.3935867791, 6061044.713847932], [582875.7297995066, 6061043.0763432495], [582876.773823093, 6061043.005292172], [582877.7801555879, 6061045.259103276], [582878.4578690791, 6061045.4824289465], [582884.8777638061, 6061041.003896733], [582881.1755741182, 6061035.732857736], [582872.4870474023, 6061038.549503659]]]}}, {"type": "Feature", "properties": {"id": "west_qa-W-M2-1-5-0", "kind": "plot", "storeys": 3, "source": "1842 plan of Vilnius (Polona, public domain), traced with west_qa local affine (fit.json); existence checked against 1808 map (reference only); plots split at ~13 m frontage (conjecture)", "grade": "B-block/C-plot", "finding": "W-M2", "verified": "W-M2 confirmed"}, "geometry": {"type": "Polygon", "coordinates": [[[582888.7356341155, 6061030.437548008], [582887.5337200171, 6061028.397144519], [582887.2294746139, 6061025.849020774], [582885.4875334627, 6061022.640682538], [582878.6663860655, 6061027.132422654], [582882.3148318174, 6061032.310698455], [582888.7356341155, 6061030.437548008]]]}}, {"type": "Feature", "properties": {"id": "west_qa-W-M2-1-6-0", "kind": "plot", "storeys": 2, "source": "1842 plan of Vilnius (Polona, public domain), traced with west_qa local affine (fit.json); existence checked against 1808 map (reference only); plots split at ~13 m frontage (conjecture)", "grade": "B-block/C-plot", "finding": "W-M2", "verified": "W-M2 confirmed"}, "geometry": {"type": "Polygon", "coordinates": [[[582881.1755741182, 6061035.732857736], [582884.8777638061, 6061041.003896733], [582890.1149928248, 6061037.267022632], [582889.9989591256, 6061035.154375013], [582888.7655077075, 6061032.810152772], [582888.7356341155, 6061030.437548008], [582882.3148318174, 6061032.310698455], [582881.1755741182, 6061035.732857736]]]}}]}