{"type": "FeatureCollection", "name": "KVR_16073_Vilniaus_senamiestis", "crs": {"type": "name", "properties": {"name": "urn:ogc:def:crs:EPSG::3346"}}, "features": [{"type": "Feature", "properties": {"Code": "16073", "Name": "Vilniaus senamiestis"}, "geometry": {"type": "Polygon", "coordinates": [[[583709.1200000001, 6062373.17], [583824.04, 6062463.82], [583846.7400000002, 6062438.01], [583849.9199999999, 6062436.449999999], [583906.3700000001, 6062371.199999999], [583943.0999999996, 6062400.699999999], [583965.9800000004, 6062404.98], [583987.8099999996, 6062422.380000001], [584005.6299999999, 6062413.800000001], [584080.1799999997, 6062374.49], [584082.3899999997, 6062373.08], [584094.79, 6062373.699999999], [584106.29, 6062370.92], [584101.4199999999, 6062342.74], [584097.25, 6062318.59], [584094.4400000004, 6062284.24], [584091.6200000001, 6062249.9], [584092.1900000004, 6062244.220000001], [584098.2199999997, 6062178.49], [584103.3899999997, 6062164.43], [584116.0800000001, 6062129.91], [584119.5700000003, 6062120.630000001], [584127.3200000003, 6062099.33], [584158.7800000003, 6062047.140000001], [584139.4500000002, 6062020.65], [584127.8099999996, 6061986.98], [584104.7199999997, 6061944.58], [584075.2999999998, 6061895.880000001], [584067.6200000001, 6061877.380000001], [584060.7999999998, 6061845.66], [584062.6399999997, 6061827.050000001], [584074.8899999997, 6061785.52], [584080.2699999996, 6061726.4399999995], [584078.1399999997, 6061710.039999999], [584065.5199999996, 6061672.5], [584056.4100000001, 6061651.449999999], [584036.2300000004, 6061608.66], [584024.9699999997, 6061587.119999999], [584001.2999999998, 6061556.470000001], [583970.6399999997, 6061521.35], [583919.2199999997, 6061459.449999999], [583961.5199999996, 6061428.210000001], [584002.8499999996, 6061404.92], [584026.5199999996, 6061394.25], [584084.8300000001, 6061376.6899999995], [584109.8600000003, 6061367.67], [584117.8200000003, 6061360.880000001], [584122.1600000001, 6061353.32], [584124.4100000001, 6061334.970000001], [584167.1900000004, 6061342.710000001], [584197.5700000003, 6061353.25], [584202.2400000002, 6061340.82], [584207.1100000003, 6061318.08], [584212.7000000002, 6061300.25], [584215.8399999999, 6061284.449999999], [584214.2400000002, 6061284.43], [584215.3099999996, 6061271.34], [584214.2999999998, 6061271.18], [584218.8399999999, 6061218.390000001], [584218.8399999999, 6061132.140000001], [584174.6200000001, 6061076.859999999], [584142.2400000002, 6061076.859999999], [584122.5499999998, 6060981.15], [584112.7699999996, 6060981.35], [584088.3899999997, 6060890.029999999], [584066.1100000003, 6060809.220000001], [584050.54, 6060692.16], [584041.29, 6060620.609999999], [583922.1299999999, 6060575.91], [583821.6900000004, 6060522.66], [583664.8600000003, 6060433.91], [583580.8700000001, 6060394.1899999995], [583531.8399999999, 6060379.68], [583409.9699999997, 6060360.85], [583362.3499999996, 6060350.460000001], [583299.3600000003, 6060324.59], [583211.9299999997, 6060281.52], [583025.9699999997, 6060220.84], [582726.1500000004, 6060264.279999999], [582676.2400000002, 6060161.6899999995], [582673.7599999998, 6060162.16], [582664.2199999997, 6060166.039999999], [582661.2699999996, 6060156.949999999], [582644.3099999996, 6060146.539999999], [582631.1100000003, 6060135.869999999], [582622.0499999998, 6060126.859999999], [582619.3700000001, 6060117], [582569, 6060084.890000001], [582518.6299999999, 6060052.789999999], [582491.7699999996, 6060060.279999999], [582496.7400000002, 6060080.93], [582298.7300000004, 6060155.779999999], [582294.3700000001, 6060235.18], [582273.4800000004, 6060326.15], [582432.79, 6060345.4], [582383.6699999999, 6060613.51], [582337.2599999998, 6060839.99], [582182.7999999998, 6060739.48], [582067.9400000004, 6061238.93], [582107.6200000001, 6061437.359999999], [582227.9800000004, 6061452.74], [582291.8499999996, 6061453.720000001], [582366.9400000004, 6061462.26], [582347.1799999997, 6061588.59], [582352.2199999997, 6061647.880000001], [582407.9400000004, 6061719.880000001], [582436.7999999998, 6061805.9], [582461.9100000001, 6061952.66], [582503.3499999996, 6061942.380000001], [582528.3799999999, 6062181.9399999995], [582515.5700000003, 6062283.8100000005], [582516.1399999997, 6062354.720000001], [582519.1699999999, 6062387.380000001], [582554.3499999996, 6062383.27], [582683, 6062369.6899999995], [582727.46, 6062357.24], [582766.3399999999, 6062338.130000001], [582814.96, 6062305.02], [582867.8700000001, 6062261.41], [582932.6600000001, 6062196.41], [582981.3099999996, 6062156.73], [583040.2199999997, 6062128.539999999], [583090.6900000004, 6062116.949999999], [583153.5800000001, 6062115.6899999995], [583220.3799999999, 6062128.5], [583270.7400000002, 6062139.33], [583310.9400000004, 6062152.859999999], [583338.6100000003, 6062154.699999999], [583363.4699999997, 6062172.119999999], [583390.71, 6062189.140000001], [583387.5300000003, 6062193.98], [583413.4400000004, 6062210.99], [583415.1100000003, 6062208.449999999], [583428.5199999996, 6062218.880000001], [583470.4500000002, 6062270.92], [583488.9800000004, 6062286.49], [583518.2199999997, 6062332.050000001], [583575.0300000003, 6062405.470000001], [583583.54, 6062415.5], [583590.3899999997, 6062419.630000001], [583601.5499999998, 6062431.35], [583623.0700000003, 6062453.949999999], [583639.6600000001, 6062470.59], [583667.3099999996, 6062493.1], [583678.3300000001, 6062501.27], [583700.1399999997, 6062469.3100000005], [583720.75, 6062439.09], [583710.9000000004, 6062425.35], [583704.2400000002, 6062415.0600000005], [583699.0199999996, 6062405.82], [583695.4800000004, 6062391.970000001], [583709.1200000001, 6062373.17]]]}}]}